[{"OBJECT_NAME":"NUSAT-44 (MARIA MITCHELL)","OBJECT_ID":"2024-043AA","EPOCH":"2026-03-09T22:12:18.524160","MEAN_MOTION":15.29764305,"ECCENTRICITY":0.0007331,"INCLINATION":97.5299,"RA_OF_ASC_NODE":207.7691,"ARG_OF_PERICENTER":214.9017,"MEAN_ANOMALY":145.1743,"EPHEMERIS_TYPE":0,"CLASSIFICATION_TYPE":"U","NORAD_CAT_ID":59122,"ELEMENT_SET_NO":999,"REV_AT_EPOCH":11209,"BSTAR":0.00061063193,"MEAN_MOTION_DOT":0.00017562,"MEAN_MOTION_DDOT":0},{"OBJECT_NAME":"STARLINK-36521","OBJECT_ID":"2026-012Q","EPOCH":"2026-03-09T01:59:44.439936","MEAN_MOTION":15.27576759,"ECCENTRICITY":0.00019639,"INCLINATION":43.0034,"RA_OF_ASC_NODE":317.425,"ARG_OF_PERICENTER":262.541,"MEAN_ANOMALY":97.5219,"EPHEMERIS_TYPE":0,"CLASSIFICATION_TYPE":"U","NORAD_CAT_ID":67507,"ELEMENT_SET_NO":999,"REV_AT_EPOCH":767,"BSTAR":0.0010586416,"MEAN_MOTION_DOT":0.00028981,"MEAN_MOTION_DDOT":0}]
